O3B MPOWER F1           
1 54755U 22174A   24017.79553981 -.00000016  00000+0  00000+0 0  9999
2 54755   0.0589  12.5880 0006197 296.5202 358.4841  5.00118370 21262
